{
  "norad_id": 48783,
  "name": "ONEWEB-0234",
  "history": [
    {
      "epoch": "2026-03-28T22:06:10.663200",
      "apogee_km": 1203.094428047465,
      "perigee_km": 1200.4611656470397,
      "latitude_deg": -0.5667245140023129,
      "longitude_deg": -133.28815200016834,
      "semi_major_axis_km": 7579.914796847253,
      "eccentricity": 0.0001737,
      "inclination_deg": 87.8929,
      "raan_deg": 275.1961,
      "arg_perigee_deg": 64.6709,
      "mean_anomaly_deg": 295.4601,
      "mean_motion_rev_day": 13.1554672
    }
  ]
}